CCSDS_OMM_VERS = 2.0
CREATION_DATE  = 
ORIGINATOR     = 

OBJECT_NAME    = STARLINK-36033
OBJECT_ID      = 2025-283R
CENTER_NAME    = EARTH
REF_FRAME      = TEME
TIME_SYSTEM    = UTC
MEAN_ELEMENT_THEORY = SGP/SGP4

EPOCH          = 2025-12-21T20:00:01.999008
MEAN_MOTION    = 15.74194498
ECCENTRICITY   = .0001078
INCLINATION    = 53.1573
RA_OF_ASC_NODE = 28.2272
ARG_OF_PERICENTER = 82.4022
MEAN_ANOMALY   = 148.3967

EPHEMERIS_TYPE = 0
CLASSIFICATION_TYPE = U
NORAD_CAT_ID   = 66893
ELEMENT_SET_NO = 999
REV_AT_EPOCH   = 389
BSTAR          = -.37954E-3
MEAN_MOTION_DOT = -.55859E-3
MEAN_MOTION_DDOT = 0

CCSDS_OMM_VERS = 2.0
CREATION_DATE  = 
ORIGINATOR     = 

OBJECT_NAME    = STARLINK-35718
OBJECT_ID      = 2025-283S
CENTER_NAME    = EARTH
REF_FRAME      = TEME
TIME_SYSTEM    = UTC
MEAN_ELEMENT_THEORY = SGP/SGP4

EPOCH          = 2025-12-21T20:00:01.999008
MEAN_MOTION    = 15.74207860
ECCENTRICITY   = .0001168
INCLINATION    = 53.1573
RA_OF_ASC_NODE = 28.2233
ARG_OF_PERICENTER = 81.5444
MEAN_ANOMALY   = 151.1666

EPHEMERIS_TYPE = 0
CLASSIFICATION_TYPE = U
NORAD_CAT_ID   = 66894
ELEMENT_SET_NO = 999
REV_AT_EPOCH   = 389
BSTAR          = -.52638E-3
MEAN_MOTION_DOT = -.7708E-3
MEAN_MOTION_DDOT = 0

CCSDS_OMM_VERS = 2.0
CREATION_DATE  = 
ORIGINATOR     = 

OBJECT_NAME    = STARLINK-35971
OBJECT_ID      = 2025-283T
CENTER_NAME    = EARTH
REF_FRAME      = TEME
TIME_SYSTEM    = UTC
MEAN_ELEMENT_THEORY = SGP/SGP4

EPOCH          = 2025-12-21T20:00:01.999008
MEAN_MOTION    = 15.74219387
ECCENTRICITY   = .0001495
INCLINATION    = 53.1576
RA_OF_ASC_NODE = 28.2142
ARG_OF_PERICENTER = 92.1435
MEAN_ANOMALY   = 144.3959

EPHEMERIS_TYPE = 0
CLASSIFICATION_TYPE = U
NORAD_CAT_ID   = 66895
ELEMENT_SET_NO = 999
REV_AT_EPOCH   = 389
BSTAR          = -.643E-3
MEAN_MOTION_DOT = -.93884E-3
MEAN_MOTION_DDOT = 0

CCSDS_OMM_VERS = 2.0
CREATION_DATE  = 
ORIGINATOR     = 

OBJECT_NAME    = STARLINK-35791
OBJECT_ID      = 2025-283U
CENTER_NAME    = EARTH
REF_FRAME      = TEME
TIME_SYSTEM    = UTC
MEAN_ELEMENT_THEORY = SGP/SGP4

EPOCH          = 2025-12-21T20:00:01.999008
MEAN_MOTION    = 15.74199595
ECCENTRICITY   = .0000972
INCLINATION    = 53.1572
RA_OF_ASC_NODE = 28.2186
ARG_OF_PERICENTER = 89.0176
MEAN_ANOMALY   = 145.6095

EPHEMERIS_TYPE = 0
CLASSIFICATION_TYPE = U
NORAD_CAT_ID   = 66896
ELEMENT_SET_NO = 999
REV_AT_EPOCH   = 389
BSTAR          = -.39214E-3
MEAN_MOTION_DOT = -.57693E-3
MEAN_MOTION_DDOT = 0

CCSDS_OMM_VERS = 2.0
CREATION_DATE  = 
ORIGINATOR     = 

OBJECT_NAME    = STARLINK-36079
OBJECT_ID      = 2025-283V
CENTER_NAME    = EARTH
REF_FRAME      = TEME
TIME_SYSTEM    = UTC
MEAN_ELEMENT_THEORY = SGP/SGP4

EPOCH          = 2025-12-21T20:00:01.999008
MEAN_MOTION    = 15.74202944
ECCENTRICITY   = .0001409
INCLINATION    = 53.1574
RA_OF_ASC_NODE = 28.2109
ARG_OF_PERICENTER = 89.0093
MEAN_ANOMALY   = 149.4536

EPHEMERIS_TYPE = 0
CLASSIFICATION_TYPE = U
NORAD_CAT_ID   = 66897
ELEMENT_SET_NO = 999
REV_AT_EPOCH   = 389
BSTAR          = -.28264E-3
MEAN_MOTION_DOT = -.41844E-3
MEAN_MOTION_DDOT = 0

CCSDS_OMM_VERS = 2.0
CREATION_DATE  = 
ORIGINATOR     = 

OBJECT_NAME    = STARLINK-36065
OBJECT_ID      = 2025-283W
CENTER_NAME    = EARTH
REF_FRAME      = TEME
TIME_SYSTEM    = UTC
MEAN_ELEMENT_THEORY = SGP/SGP4

EPOCH          = 2025-12-21T20:00:01.999008
MEAN_MOTION    = 15.74205136
ECCENTRICITY   = .0001214
INCLINATION    = 53.1577
RA_OF_ASC_NODE = 28.2064
ARG_OF_PERICENTER = 85.0315
MEAN_ANOMALY   = 155.3499

EPHEMERIS_TYPE = 0
CLASSIFICATION_TYPE = U
NORAD_CAT_ID   = 66898
ELEMENT_SET_NO = 999
REV_AT_EPOCH   = 389
BSTAR          = -.51882E-3
MEAN_MOTION_DOT = -.75984E-3
MEAN_MOTION_DDOT = 0

CCSDS_OMM_VERS = 2.0
CREATION_DATE  = 
ORIGINATOR     = 

OBJECT_NAME    = STARLINK-36064
OBJECT_ID      = 2025-283X
CENTER_NAME    = EARTH
REF_FRAME      = TEME
TIME_SYSTEM    = UTC
MEAN_ELEMENT_THEORY = SGP/SGP4

EPOCH          = 2025-12-21T20:00:01.999008
MEAN_MOTION    = 15.74200086
ECCENTRICITY   = .0001033
INCLINATION    = 53.1668
RA_OF_ASC_NODE = 28.2028
ARG_OF_PERICENTER = 87.8810
MEAN_ANOMALY   = 154.4124

EPHEMERIS_TYPE = 0
CLASSIFICATION_TYPE = U
NORAD_CAT_ID   = 66899
ELEMENT_SET_NO = 999
REV_AT_EPOCH   = 383
BSTAR          = -.31143E-3
MEAN_MOTION_DOT = -.46011E-3
MEAN_MOTION_DDOT = 0

CCSDS_OMM_VERS = 2.0
CREATION_DATE  = 
ORIGINATOR     = 

OBJECT_NAME    = STARLINK-36074
OBJECT_ID      = 2025-283Y
CENTER_NAME    = EARTH
REF_FRAME      = TEME
TIME_SYSTEM    = UTC
MEAN_ELEMENT_THEORY = SGP/SGP4

EPOCH          = 2025-12-21T20:00:01.999008
MEAN_MOTION    = 15.74208621
ECCENTRICITY   = .0001166
INCLINATION    = 53.1575
RA_OF_ASC_NODE = 28.1982
ARG_OF_PERICENTER = 77.4181
MEAN_ANOMALY   = 166.7933

EPHEMERIS_TYPE = 0
CLASSIFICATION_TYPE = U
NORAD_CAT_ID   = 66900
ELEMENT_SET_NO = 999
REV_AT_EPOCH   = 389
BSTAR          = -.55023E-3
MEAN_MOTION_DOT = -.80514E-3
MEAN_MOTION_DDOT = 0

CCSDS_OMM_VERS = 2.0
CREATION_DATE  = 
ORIGINATOR     = 

OBJECT_NAME    = STARLINK-36043
OBJECT_ID      = 2025-283Z
CENTER_NAME    = EARTH
REF_FRAME      = TEME
TIME_SYSTEM    = UTC
MEAN_ELEMENT_THEORY = SGP/SGP4

EPOCH          = 2025-12-21T20:00:01.999008
MEAN_MOTION    = 15.74198325
ECCENTRICITY   = .0001084
INCLINATION    = 53.1574
RA_OF_ASC_NODE = 28.1940
ARG_OF_PERICENTER = 88.5844
MEAN_ANOMALY   = 157.5466

EPHEMERIS_TYPE = 0
CLASSIFICATION_TYPE = U
NORAD_CAT_ID   = 66901
ELEMENT_SET_NO = 999
REV_AT_EPOCH   = 389
BSTAR          = -.27834E-3
MEAN_MOTION_DOT = -.41209E-3
MEAN_MOTION_DDOT = 0

CCSDS_OMM_VERS = 2.0
CREATION_DATE  = 
ORIGINATOR     = 

OBJECT_NAME    = STARLINK-35983
OBJECT_ID      = 2025-283AA
CENTER_NAME    = EARTH
REF_FRAME      = TEME
TIME_SYSTEM    = UTC
MEAN_ELEMENT_THEORY = SGP/SGP4

EPOCH          = 2025-12-21T20:00:01.999008
MEAN_MOTION    = 15.74211138
ECCENTRICITY   = .0001283
INCLINATION    = 53.1666
RA_OF_ASC_NODE = 28.1909
ARG_OF_PERICENTER = 92.5300
MEAN_ANOMALY   = 155.5078

EPHEMERIS_TYPE = 0
CLASSIFICATION_TYPE = U
NORAD_CAT_ID   = 66902
ELEMENT_SET_NO = 999
REV_AT_EPOCH   = 389
BSTAR          = -.33295E-3
MEAN_MOTION_DOT = -.49154E-3
MEAN_MOTION_DDOT = 0

CCSDS_OMM_VERS = 2.0
CREATION_DATE  = 
ORIGINATOR     = 

OBJECT_NAME    = STARLINK-36077
OBJECT_ID      = 2025-283AB
CENTER_NAME    = EARTH
REF_FRAME      = TEME
TIME_SYSTEM    = UTC
MEAN_ELEMENT_THEORY = SGP/SGP4

EPOCH          = 2025-12-21T20:00:01.999008
MEAN_MOTION    = 15.74215950
ECCENTRICITY   = .0001475
INCLINATION    = 53.1575
RA_OF_ASC_NODE = 28.1864
ARG_OF_PERICENTER = 99.3898
MEAN_ANOMALY   = 150.5706

EPHEMERIS_TYPE = 0
CLASSIFICATION_TYPE = U
NORAD_CAT_ID   = 66903
ELEMENT_SET_NO = 999
REV_AT_EPOCH   = 389
BSTAR          = -.59867E-3
MEAN_MOTION_DOT = -.87508E-3
MEAN_MOTION_DDOT = 0

CCSDS_OMM_VERS = 2.0
CREATION_DATE  = 
ORIGINATOR     = 

OBJECT_NAME    = STARLINK-36059
OBJECT_ID      = 2025-283AC
CENTER_NAME    = EARTH
REF_FRAME      = TEME
TIME_SYSTEM    = UTC
MEAN_ELEMENT_THEORY = SGP/SGP4

EPOCH          = 2025-12-21T20:00:01.999008
MEAN_MOTION    = 15.74215670
ECCENTRICITY   = .000112
INCLINATION    = 53.1575
RA_OF_ASC_NODE = 28.1820
ARG_OF_PERICENTER = 86.6282
MEAN_ANOMALY   = 165.2516

EPHEMERIS_TYPE = 0
CLASSIFICATION_TYPE = U
NORAD_CAT_ID   = 66904
ELEMENT_SET_NO = 999
REV_AT_EPOCH   = 389
BSTAR          = -.68516E-3
MEAN_MOTION_DOT = -.99907E-3
MEAN_MOTION_DDOT = 0

