STARLINK-36033          
1 66893U 25283R   25355.83335647 -.00055859  00000+0 -37954-3 0  9995
2 66893  53.1573  28.2272 0001078  82.4022 148.3967 15.74194498  3895
STARLINK-35718          
1 66894U 25283S   25355.83335647 -.00077080  00000+0 -52638-3 0  9992
2 66894  53.1573  28.2233 0001168  81.5444 151.1666 15.74207860  3897
STARLINK-35971          
1 66895U 25283T   25355.83335647 -.00093884  00000+0 -64300-3 0  9992
2 66895  53.1576  28.2142 0001495  92.1435 144.3959 15.74219387  3897
STARLINK-35791          
1 66896U 25283U   25355.83335647 -.00057693  00000+0 -39214-3 0  9997
2 66896  53.1572  28.2186 0000972  89.0176 145.6095 15.74199595  3891
STARLINK-36079          
1 66897U 25283V   25355.83335647 -.00041844  00000+0 -28264-3 0  9992
2 66897  53.1574  28.2109 0001409  89.0093 149.4536 15.74202944  3898
STARLINK-36065          
1 66898U 25283W   25355.83335647 -.00075984  00000+0 -51882-3 0  9997
2 66898  53.1577  28.2064 0001214  85.0315 155.3499 15.74205136  3899
STARLINK-36064          
1 66899U 25283X   25355.83335647 -.00046011  00000+0 -31143-3 0  9995
2 66899  53.1668  28.2028 0001033  87.8810 154.4124 15.74200086  3838
STARLINK-36074          
1 66900U 25283Y   25355.83335647 -.00080514  00000+0 -55023-3 0  9997
2 66900  53.1575  28.1982 0001166  77.4181 166.7933 15.74208621  3892
STARLINK-36043          
1 66901U 25283Z   25355.83335647 -.00041209  00000+0 -27834-3 0  9995
2 66901  53.1574  28.1940 0001084  88.5844 157.5466 15.74198325  3892
STARLINK-35983          
1 66902U 25283AA  25355.83335647 -.00049154  00000+0 -33295-3 0  9991
2 66902  53.1666  28.1909 0001283  92.5300 155.5078 15.74211138  3898
STARLINK-36077          
1 66903U 25283AB  25355.83335647 -.00087508  00000+0 -59867-3 0  9990
2 66903  53.1575  28.1864 0001475  99.3898 150.5706 15.74215950  3897
STARLINK-36059          
1 66904U 25283AC  25355.83335647 -.00099907  00000+0 -68516-3 0  9998
2 66904  53.1575  28.1820 0001120  86.6282 165.2516 15.74215670  3894
